$$SOE
2459580.500000000, A.D. 2022-Jan-01 00:00:00.0000, -3.674402756678089E+08, 2.515567917933827E+08, 3.030832221519032E+07,
2459587.500000000, A.D. 2022-Jan-08 00:00:00.0000, -3.747476668602632E+08, 2.470043787997235E+08, 2.922230440664442E+07,
2459594.500000000, A.D. 2022-Jan-15 00:00:00.0000, -3.818551748379557E+08, 2.423201679336436E+08, 2.812069314759962E+07,
2459601.500000000, A.D. 2022-Jan-22 00:00:00.0000, -3.887634847456746E+08, 2.375095021881849E+08, 2.700440605683646E+07,
2459608.500000000, A.D. 2022-Jan-29 00:00:00.0000, -3.954732869483055E+08, 2.325775209919251E+08, 2.587432422733466E+07,
2459615.500000000, A.D. 2022-Feb-05 00:00:00.0000, -4.019852748294036E+08, 2.275291722680653E+08, 2.473129479368363E+07,
2459622.500000000, A.D. 2022-Feb-12 00:00:00.0000, -4.083001409460763E+08, 2.223692226032223E+08, 2.357613304760638E+07,
2459629.500000000, A.D. 2022-Feb-19 00:00:00.0000, -4.144185727976210E+08, 2.171022679543918E+08, 2.240962443030439E+07,
2459636.500000000, A.D. 2022-Feb-26 00:00:00.0000, -4.203412494646656E+08, 2.117327442277105E+08, 2.123252647534408E+07,
2459643.500000000, A.D. 2022-Mar-05 00:00:00.0000, -4.260688389123260E+08, 2.062649371664138E+08, 2.004557064852646E+07,
2459650.500000000, A.D. 2022-Mar-12 00:00:00.0000, -4.316019956938108E+08, 2.007029915330536E+08, 1.884946406945114E+07,
2459657.500000000, A.D. 2022-Mar-19 00:00:00.0000, -4.369413589464470E+08, 1.950509196613257E+08, 1.764489112000541E+07,
2459664.500000000, A.D. 2022-Mar-26 00:00:00.0000, -4.420875506247277E+08, 1.893126094154182E+08, 1.643251494583982E+07,
2459671.500000000, A.D. 2022-Apr-02 00:00:00.0000, -4.470411738730150E+08, 1.834918315414351E+08, 1.521297884789594E+07,
2459678.500000000, A.D. 2022-Apr-09 00:00:00.0000, -4.518028112393579E+08, 1.775922464527902E+08, 1.398690754662074E+07,
2459685.500000000, A.D. 2022-Apr-16 00:00:00.0000, -4.563730223495860E+08, 1.716174111375202E+08, 1.275490834616989E+07,
2459692.500000000, A.D. 2022-Apr-23 00:00:00.0000, -4.607523422898991E+08, 1.655707873026586E+08, 1.151757240967212E+07,
2459699.500000000, A.D. 2022-Apr-30 00:00:00.0000, -4.649412825509852E+08, 1.594557485394092E+08, 1.027547613918801E+07,
2459706.500000000, A.D. 2022-May-07 00:00:00.0000, -4.689403314549897E+08, 1.532755845634240E+08, 9.029182223366670E+06,
2459713.500000000, A.D. 2022-May-14 00:00:00.0000, -4.727499526596062E+08, 1.470335055929340E+08, 7.779240478579864E+06,
2459720.500000000, A.D. 2022-May-21 00:00:00.0000, -4.763705837572572E+08, 1.407326476449384E+08, 6.526188736361347E+06,
2459727.500000000, A.D. 2022-May-28 00:00:00.0000, -4.798026354382587E+08, 1.343760778117799E+08, 5.270553746852770E+06,
2459734.500000000, A.D. 2022-Jun-04 00:00:00.0000, -4.830464909315510E+08, 1.279667992257494E+08, 4.012852051164925E+06,
2459741.500000000, A.D. 2022-Jun-11 00:00:00.0000, -4.861025055694154E+08, 1.215077557328305E+08, 2.753590813238107E+06,
2459748.500000000, A.D. 2022-Jun-18 00:00:00.0000, -4.889710064295216E+08, 1.150018363063876E+08, 1.493268612182237E+06,
2459755.500000000, A.D. 2022-Jun-25 00:00:00.0000, -4.916522920178951E+08, 1.084518791840594E+08, 2.323761929225996E+05,
2459762.500000000, A.D. 2022-Jul-02 00:00:00.0000, -4.941466318526049E+08, 1.018606756776367E+08, -1.028602839460351E+06,
2459769.500000000, A.D. 2022-Jul-09 00:00:00.0000, -4.964542655523311E+08, 9.523097384751284E+07, -2.289191400125399E+06,
2459776.500000000, A.D. 2022-Jul-16 00:00:00.0000, -4.985754014799365E+08, 8.856548313810237E+07, -3.548918283275515E+06,
2459783.500000000, A.D. 2022-Jul-23 00:00:00.0000, -5.005102171355001E+08, 8.186688006448549E+07, -4.807317288772766E+06,
2459790.500000000, A.D. 2022-Jul-30 00:00:00.0000, -5.022588612123187E+08, 7.513781160883500E+07, -6.063926395939909E+06,
2459797.500000000, A.D. 2022-Aug-06 00:00:00.0000, -5.038214537139212E+08, 6.838089698752204E+07, -7.318287259225648E+06,
2459804.500000000, A.D. 2022-Aug-13 00:00:00.0000, -5.051980849508632E+08, 6.159873055451227E+07, -8.569944722628379E+06,
2459811.500000000, A.D. 2022-Aug-20 00:00:00.0000, -5.063888149839849E+08, 5.479388534743628E+07, -9.818446247821717E+06,
2459818.500000000, A.D. 2022-Aug-27 00:00:00.0000, -5.073936734449333E+08, 4.796891655991153E+07, -1.106334131957275E+07,
2459825.500000000, A.D. 2022-Sep-03 00:00:00.0000, -5.082126594849365E+08, 4.112636484002899E+07, -1.230418085826015E+07,
2459832.500000000, A.D. 2022-Sep-10 00:00:00.0000, -5.088457417604687E+08, 3.426875944913715E+07, -1.354051664390619E+07,
2459839.500000000, A.D. 2022-Sep-17 00:00:00.0000, -5.092928584252386E+08, 2.739862128920494E+07, -1.477190075279208E+07,
2459846.500000000, A.D. 2022-Sep-24 00:00:00.0000, -5.095539170669572E+08, 2.051846575792433E+07, -1.599788501468527E+07,
2459853.500000000, A.D. 2022-Oct-01 00:00:00.0000, -5.096287943475060E+08, 1.363080541933292E+07, -1.721802051288941E+07,
2459860.500000000, A.D. 2022-Oct-08 00:00:00.0000, -5.095173349372737E+08, 6.738153021843300E+06, -1.843185712016210E+07,
2459867.500000000, A.D. 2022-Oct-15 00:00:00.0000, -5.092193506733679E+08, -1.569739281834280E+05, -1.963894288538068E+07,
2459874.500000000, A.D. 2022-Oct-22 00:00:00.0000, -5.087346221225891E+08, -7.052048713211056E+06, -2.083882320697576E+07,
2459881.500000000, A.D. 2022-Oct-29 00:00:00.0000, -5.080629000527805E+08, -1.394453365661956E+07, -2.203104023291215E+07,
2459888.500000000, A.D. 2022-Nov-05 00:00:00.0000, -5.072039047144035E+08, -2.083187832912327E+07, -2.321513245436794E+07,
2459895.500000000, A.D. 2022-Nov-12 00:00:00.0000, -5.061573248976770E+08, -2.771151643245213E+07, -2.439063420781862E+07,
2459902.500000000, A.D. 2022-Nov-19 00:00:00.0000, -5.049228174862260E+08, -3.458086230455995E+07, -2.555707509610742E+07,
2459909.500000000, A.D. 2022-Nov-26 00:00:00.0000, -5.035000072471881E+08, -4.143730743289679E+07, -2.671397938355682E+07,
2459916.500000000, A.D. 2022-Dec-03 00:00:00.0000, -5.018884866934776E+08, -4.827821697575668E+07, -2.786086537958350E+07,
2459923.500000000, A.D. 2022-Dec-10 00:00:00.0000, -5.000878159740847E+08, -5.510092626127166E+07, -2.899724481154393E+07,
2459930.500000000, A.D. 2022-Dec-17 00:00:00.0000, -4.980975227692704E+08, -6.190273727711540E+07, -3.012262218906425E+07,
2459937.500000000, A.D. 2022-Dec-24 00:00:00.0000, -4.959171020833047E+08, -6.868091520440759E+07, -3.123649417310633E+07,
2459944.500000000, A.D. 2022-Dec-31 00:00:00.0000, -4.935460155796044E+08, -7.543268487532108E+07, -3.233834897150481E+07,
2459951.500000000, A.D. 2023-Jan-07 00:00:00.0000, -4.909836903383471E+08, -8.215522617829815E+07, -3.342766569115197E+07,
2459958.500000000, A.D. 2023-Jan-14 00:00:00.0000, -4.882295190068496E+08, -8.884566789989296E+07, -3.450391342326946E+07,
2459965.500000000, A.D. 2023-Jan-21 00:00:00.0000, -4.852828619923601E+08, -9.550108316116455E+07, -3.556655025942221E+07,
2459972.500000000, A.D. 2023-Jan-28 00:00:00.0000, -4.821430480355458E+08, -1.021184866275480E+08, -3.661502258808602E+07,
2459979.500000000, A.D. 2023-Feb-04 00:00:00.0000, -4.788093733786055E+08, -1.086948304459572E+08, -3.764876440208472E+07,
2459986.500000000, A.D. 2023-Feb-11 00:00:00.0000, -4.752811013284728E+08, -1.152269990838086E+08, -3.866719646464901E+07,
2459993.500000000, A.D. 2023-Feb-18 00:00:00.0000, -4.715574622855470E+08, -1.217118038736381E+08, -3.966972539221742E+07,
2460000.500000000, A.D. 2023-Feb-25 00:00:00.0000, -4.676376539842733E+08, -1.281459774037637E+08, -4.065574268784598E+07,
2460007.500000000, A.D. 2023-Mar-04 00:00:00.0000, -4.635208418536276E+08, -1.345261677126408E+08, -4.162462372928040E+07,
2460014.500000000, A.D. 2023-Mar-11 00:00:00.0000, -4.592061594801564E+08, -1.408489322608404E+08, -4.257572671012393E+07,
2460021.500000000, A.D. 2023-Mar-18 00:00:00.0000, -4.546927091391602E+08, -1.471107317025297E+08, -4.350839153797906E+07,
2460028.500000000, A.D. 2023-Mar-25 00:00:00.0000, -4.499795622050764E+08, -1.533079234737621E+08, -4.442193870723849E+07,
2460035.500000000, A.D. 2023-Apr-01 00:00:00.0000, -4.450657590326993E+08, -1.594367547716530E+08, -4.531566814807135E+07,
2460042.500000000, A.D. 2023-Apr-08 00:00:00.0000, -4.399503089425221E+08, -1.654933536641948E+08, -4.618885788931853E+07,
2460049.500000000, A.D. 2023-Apr-15 00:00:00.0000, -4.346321926674700E+08, -1.714737193993535E+08, -4.704076240523103E+07,
2460056.500000000, A.D. 2023-Apr-22 00:00:00.0000, -4.291103654763876E+08, -1.773737149255197E+08, -4.787061105518253E+07,
2460063.500000000, A.D. 2023-Apr-29 00:00:00.0000, -4.233837582679381E+08, -1.831890593264387E+08, -4.867760667643245E+07,
2460070.500000000, A.D. 2023-May-06 00:00:00.0000, -4.174512784265839E+08, -1.889153183410133E+08, -4.946092401544453E+07,
2460077.500000000, A.D. 2023-May-13 00:00:00.0000, -4.113118114532248E+08, -1.945478938097405E+08, -5.021970797332767E+07,
2460084.500000000, A.D. 2023-May-20 00:00:00.0000, -4.049642231789472E+08, -2.000820124831309E+08, -5.095307171906159E+07,
2460091.500000000, A.D. 2023-May-27 00:00:00.0000, -3.984073624184245E+08, -2.055127141599002E+08, -5.166009468229154E+07,
2460098.500000000, A.D. 2023-Jun-03 00:00:00.0000, -3.916400640622135E+08, -2.108348390601656E+08, -5.233982041950157E+07,
2460105.500000000, A.D. 2023-Jun-10 00:00:00.0000, -3.846611526476272E+08, -2.160430143716017E+08, -5.299125434624150E+07,
2460112.500000000, A.D. 2023-Jun-17 00:00:00.0000, -3.774694463904784E+08, -2.211316399466046E+08, -5.361336133666597E+07,
2460119.500000000, A.D. 2023-Jun-24 00:00:00.0000, -3.700637614395837E+08, -2.260948730070870E+08, -5.420506320257211E+07,
2460126.500000000, A.D. 2023-Jul-01 00:00:00.0000, -3.624429161965482E+08, -2.309266109346041E+08, -5.476523599440084E+07,
2460133.500000000, A.D. 2023-Jul-08 00:00:00.0000, -3.546057374867108E+08, -2.356204712214565E+08, -5.529270688990624E+07,
2460140.500000000, A.D. 2023-Jul-15 00:00:00.0000, -3.465510699886158E+08, -2.401697713012978E+08, -5.578625077050741E+07,
$$EOE